{
  "type": "FeatureCollection",
  "features": [
    {
      "type": "Feature",
      "properties": {
        "norad_id": 40118,
        "name": "GAOFEN-2",
        "group": "resource",
        "lat": -15.986008195862038,
        "lon": 63.05072986162526,
        "alt_km": 631.9769009494712,
        "timestamp": "2025-12-27T12:55:14.144092+00:00",
        "meta_object_name": "GAOFEN-2",
        "meta_object_id": "2014-049A",
        "meta_epoch": "2025-12-27T08:07:39.381600",
        "meta_mean_motion": 14.80634742,
        "meta_eccentricity": 0.00087335,
        "meta_inclination": 98.0362,
        "meta_ra_of_asc_node": 60.5311,
        "meta_arg_of_pericenter": 72.9478,
        "meta_mean_anomaly": 287.269,
        "meta_ephemeris_type": 0,
        "meta_classification_type": "U",
        "meta_norad_cat_id": 40118,
        "meta_element_set_no": 999,
        "meta_rev_at_epoch": 61380,
        "meta_bstar": 0.00018263309,
        "meta_mean_motion_dot": 1.35e-05,
        "meta_mean_motion_ddot": 0,
        "tle_line1": "1 40118U 14049A   25361.33865025  .00001350  00000+0  18263-3 0  9992",
        "tle_line2": "2 40118  98.0362  60.5311 0008733  72.9478 287.2690 14.80634742613809"
      },
      "geometry": {
        "type": "Point",
        "coordinates": [
          63.05072986162526,
          -15.986008195862038
        ]
      }
    },
    {
      "type": "Feature",
      "properties": {
        "norad_id": 40143,
        "name": "YAOGAN-21",
        "group": "resource",
        "lat": 78.4002160074838,
        "lon": 6.355872955411787,
        "alt_km": 486.8887212606187,
        "timestamp": "2025-12-27T12:55:14.144107+00:00",
        "meta_object_name": "YAOGAN-21",
        "meta_object_id": "2014-053A",
        "meta_epoch": "2025-12-27T06:15:48.329856",
        "meta_mean_motion": 15.23824559,
        "meta_eccentricity": 0.00082841,
        "meta_inclination": 97.1739,
        "meta_ra_of_asc_node": 43.9419,
        "meta_arg_of_pericenter": 353.0294,
        "meta_mean_anomaly": 7.0827,
        "meta_ephemeris_type": 0,
        "meta_classification_type": "U",
        "meta_norad_cat_id": 40143,
        "meta_element_set_no": 999,
        "meta_rev_at_epoch": 62875,
        "meta_bstar": 0.00029420917,
        "meta_mean_motion_dot": 7.029e-05,
        "meta_mean_motion_ddot": 0,
        "tle_line1": "1 40143U 14053A   25361.26097604  .00007029  00000+0  29421-3 0  9994",
        "tle_line2": "2 40143  97.1739  43.9419 0008284 353.0294   7.0827 15.23824559628754"
      },
      "geometry": {
        "type": "Point",
        "coordinates": [
          6.355872955411787,
          78.4002160074838
        ]
      }
    },
    {
      "type": "Feature",
      "properties": {
        "norad_id": 40275,
        "name": "YAOGAN-22",
        "group": "resource",
        "lat": 1.3754305248093766,
        "lon": 144.90600810536722,
        "alt_km": 1208.3498530200814,
        "timestamp": "2025-12-27T12:55:14.144117+00:00",
        "meta_object_name": "YAOGAN-22",
        "meta_object_id": "2014-063A",
        "meta_epoch": "2025-12-27T05:36:45.157536",
        "meta_mean_motion": 13.15523321,
        "meta_eccentricity": 0.00061264,
        "meta_inclination": 100.7431,
        "meta_ra_of_asc_node": 144.8585,
        "meta_arg_of_pericenter": 213.6133,
        "meta_mean_anomaly": 146.459,
        "meta_ephemeris_type": 0,
        "meta_classification_type": "U",
        "meta_norad_cat_id": 40275,
        "meta_element_set_no": 999,
        "meta_rev_at_epoch": 53720,
        "meta_bstar": 7.626334e-05,
        "meta_mean_motion_dot": -1.8e-07,
        "meta_mean_motion_ddot": 0,
        "tle_line1": "1 40275U 14063A   25361.23385599 -.00000018  00000+0  76263-4 0  9990",
        "tle_line2": "2 40275 100.7431 144.8585 0006126 213.6133 146.4590 13.15523321537207"
      },
      "geometry": {
        "type": "Point",
        "coordinates": [
          144.90600810536722,
          1.3754305248093766
        ]
      }
    },
    {
      "type": "Feature",
      "properties": {
        "norad_id": 40298,
        "name": "ASNARO",
        "group": "resource",
        "lat": -82.61488840548293,
        "lon": 163.21001942357856,
        "alt_km": 517.6357096223737,
        "timestamp": "2025-12-27T12:55:14.144127+00:00",
        "meta_object_name": "ASNARO",
        "meta_object_id": "2014-070A",
        "meta_epoch": "2025-12-27T06:59:36.909024",
        "meta_mean_motion": 15.19805056,
        "meta_eccentricity": 0.00056625,
        "meta_inclination": 97.363,
        "meta_ra_of_asc_node": 76.8827,
        "meta_arg_of_pericenter": 83.3567,
        "meta_mean_anomaly": 276.8313,
        "meta_ephemeris_type": 0,
        "meta_classification_type": "U",
        "meta_norad_cat_id": 40298,
        "meta_element_set_no": 999,
        "meta_rev_at_epoch": 61790,
        "meta_bstar": 0.00086271939,
        "meta_mean_motion_dot": 0.00018449,
        "meta_mean_motion_ddot": 0,
        "tle_line1": "1 40298U 14070A   25361.29139941  .00018449  00000+0  86272-3 0  9993",
        "tle_line2": "2 40298  97.3630  76.8827 0005662  83.3567 276.8313 15.19805056617905"
      },
      "geometry": {
        "type": "Point",
        "coordinates": [
          163.21001942357856,
          -82.61488840548293
        ]
      }
    },
    {
      "type": "Feature",
      "properties": {
        "norad_id": 40310,
        "name": "YAOGAN-24",
        "group": "resource",
        "lat": 81.569940679631,
        "lon": 27.235530669125964,
        "alt_km": 623.2015551963614,
        "timestamp": "2025-12-27T12:55:14.144137+00:00",
        "meta_object_name": "YAOGAN-24",
        "meta_object_id": "2014-072A",
        "meta_epoch": "2025-12-27T07:37:29.229888",
        "meta_mean_motion": 14.76205398,
        "meta_eccentricity": 0.00152023,
        "meta_inclination": 98.1232,
        "meta_ra_of_asc_node": 132.4894,
        "meta_arg_of_pericenter": 94.6056,
        "meta_mean_anomaly": 265.689,
        "meta_ephemeris_type": 0,
        "meta_classification_type": "U",
        "meta_norad_cat_id": 40310,
        "meta_element_set_no": 999,
        "meta_rev_at_epoch": 59836,
        "meta_bstar": 0.0001031193,
        "meta_mean_motion_dot": 6.62e-06,
        "meta_mean_motion_ddot": 0,
        "tle_line1": "1 40310U 14072A   25361.31769942  .00000662  00000+0  10312-3 0  9993",
        "tle_line2": "2 40310  98.1232 132.4894 0015202  94.6056 265.6890 14.76205398598368"
      },
      "geometry": {
        "type": "Point",
        "coordinates": [
          27.235530669125964,
          81.569940679631
        ]
      }
    },
    {
      "type": "Feature",
      "properties": {
        "norad_id": 40336,
        "name": "CBERS 4",
        "group": "resource",
        "lat": -9.261953544620663,
        "lon": -122.3216090269075,
        "alt_km": 777.4771253030749,
        "timestamp": "2025-12-27T12:55:14.144147+00:00",
        "meta_object_name": "CBERS 4",
        "meta_object_id": "2014-079A",
        "meta_epoch": "2025-12-27T07:01:24.564288",
        "meta_mean_motion": 14.35523266,
        "meta_eccentricity": 0.00018925,
        "meta_inclination": 98.3285,
        "meta_ra_of_asc_node": 58.81,
        "meta_arg_of_pericenter": 96.7003,
        "meta_mean_anomaly": 263.4398,
        "meta_ephemeris_type": 0,
        "meta_classification_type": "U",
        "meta_norad_cat_id": 40336,
        "meta_element_set_no": 999,
        "meta_rev_at_epoch": 57929,
        "meta_bstar": 5.3400433e-05,
        "meta_mean_motion_dot": 1.12e-06,
        "meta_mean_motion_ddot": 0,
        "tle_line1": "1 40336U 14079A   25361.29264542  .00000112  00000+0  53400-4 0  9997",
        "tle_line2": "2 40336  98.3285  58.8100 0001892  96.7003 263.4398 14.35523266579294"
      },
      "geometry": {
        "type": "Point",
        "coordinates": [
          -122.3216090269075,
          -9.261953544620663
        ]
      }
    },
    {
      "type": "Feature",
      "properties": {
        "norad_id": 40362,
        "name": "YAOGAN-26",
        "group": "resource",
        "lat": -80.6215853116181,
        "lon": 50.35825753986946,
        "alt_km": 452.7412516635568,
        "timestamp": "2025-12-27T12:55:14.144158+00:00",
        "meta_object_name": "YAOGAN-26",
        "meta_object_id": "2014-088A",
        "meta_epoch": "2025-12-27T07:02:43.620288",
        "meta_mean_motion": 15.39829417,
        "meta_eccentricity": 0.00040476,
        "meta_inclination": 97.0648,
        "meta_ra_of_asc_node": 1.4532,
        "meta_arg_of_pericenter": 341.2339,
        "meta_mean_anomaly": 18.8758,
        "meta_ephemeris_type": 0,
        "meta_classification_type": "U",
        "meta_norad_cat_id": 40362,
        "meta_element_set_no": 999,
        "meta_rev_at_epoch": 61118,
        "meta_bstar": 0.0006838671,
        "meta_mean_motion_dot": 0.00027121,
        "meta_mean_motion_ddot": 0,
        "tle_line1": "1 40362U 14088A   25361.29356042  .00027121  00000+0  68387-3 0  9991",
        "tle_line2": "2 40362  97.0648   1.4532 0004047 341.2339  18.8758 15.39829417611189"
      },
      "geometry": {
        "type": "Point",
        "coordinates": [
          50.35825753986946,
          -80.6215853116181
        ]
      }
    }
  ]
}